#aP2004  7 28  0  0  0.00000000      96 ORBIT IGb00 HLM  IGS
## 1281 259200.00000000   900.00000000 53214 0.0000000000000
+   29     1  3  4  5  6  7  8  9 10 11 13 14 15 16 17 18 19
+         20 21 22 23 24 25 26 27 28 29 30 31  0  0  0  0  0
+          0  0  0  0  0  0  0  0  0  0  0  0  0  0  0  0  0
+          0  0  0  0  0  0  0  0  0  0  0  0  0  0  0  0  0
+          0  0  0  0  0  0  0  0  0  0  0  0  0  0  0  0  0
++         3  4  3  3  3  3  4  4  3  4  4  4  3  4  3  3  4
++         4  3  4  4  3  4  3  4  4  5  3  3  0  0  0  0  0
++         0  0  0  0  0  0  0  0  0  0  0  0  0  0  0  0  0
++         0  0  0  0  0  0  0  0  0  0  0  0  0  0  0  0  0
++         0  0  0  0  0  0  0  0  0  0  0  0  0  0  0  0  0
%c cc cc ccc ccc cccc cccc cccc cccc ccccc ccccc ccccc ccccc
%c cc cc ccc ccc cccc cccc cccc cccc ccccc ccccc ccccc ccccc
%f  0.0000000  0.000000000  0.00000000000  0.000000000000000
%f  0.0000000  0.000000000  0.00000000000  0.000000000000000
%i    0    0    0    0      0      0      0      0         0
%i    0    0    0    0      0      0      0      0         0
/* FINAL ORBIT COMBINATION FROM WEIGHTED AVERAGE OF:        
/* cod emr esa gfz jpl mit ngs sio                          
/* REFERENCED TO IGS TIME AND TO WEIGHTED MEAN POLE:        
/* CLK ANT Z-OFFSET (M): II/IIA 1.023; IIR 0.000            
*  2004  7 28  4  0  0.00000000
P  1  16282.511566  -3168.420341 -20566.751133    355.668049
P  3  22925.785888   8750.443878  10362.493195     30.802630
P  4  -7368.031783 -18787.179385 -17088.459510   -228.822488
P  5 -21539.247787  13692.772167  -7155.663831     41.420458
P  6  -2233.998047  17533.908312 -19588.256204    308.240020
P  7 -16308.846242 -20228.791382   6321.062946    438.129468
P  8  -1209.251888 -23863.976690  11041.907866     -5.290733
P  9 -14354.645143  15613.689020  15299.947391    -56.123372
P 10 -25155.905209    724.832164  -8981.113845     47.945573
P 11  13936.936077 -17019.488297  14776.537749    136.044381
P 13   -597.549403 -18421.423330 -19209.968908    -25.086586
P 14  14930.240181  20829.941707   7026.589430    -24.043707
P 15   6388.508447  18842.327081  17240.577961    298.806101
P 16  22637.937462   3173.128723 -13461.835861      8.268477
P 17 -16460.302030   5332.475031 -19711.749356   -106.196231
P 18  -6613.561654  15993.176817  20113.186509    -58.794879
P 19  17625.718724  -1568.495651  19891.941223    -16.671912
P 20  20636.397686 -13450.411958 -10015.441766   -138.489671
P 21  -4823.068868  25613.832640   3674.688333     77.795562
P 22   6486.084476  14073.267179  21724.562900     16.045365
P 23  12904.297686  -8623.263322 -21662.179139    130.483648
P 24 -13542.206594  -6474.252414 -21608.830956     45.146437
P 25  11006.615511  15297.280735 -18346.056142     72.136746
P 26 -19913.625246  -3385.371124  17272.177943    172.566188
P 27   3283.874708 -26038.619156   2129.722586    336.228809
P 28  -7439.393230 -13732.162924  21714.740676     38.503595
P 29 -21415.177419  -6204.830730  14759.869239    379.187196
P 30 -12001.896047  16815.277099 -16866.557156    555.970525
P 31  -9281.721206 -20761.398515  13131.550463    271.371344
*  2004  7 28  4 15  0.00000000
P  1  17907.320332  -1515.877187 -19381.897932    355.670805
P  3  23579.202145   9629.327630   7856.709838     30.805615
P  4  -6758.296071 -20554.882553 -15173.027826   -228.834965
P  5 -22267.846317  13642.023515  -4446.203035     41.422572
P  6  -4091.799787  16097.392992 -20502.763277    308.277414
P  7 -15490.841657 -19932.213013   8936.431051    438.112207
P  8   -698.245434 -24922.588959   8464.914588     -5.290944
P  9 -14230.681639  13656.362135  17156.607298    -56.124191
P 10 -24100.921805    229.470521 -11528.905993     47.945757
P 11  14033.146464 -15183.272188  16588.529126    136.047236
P 13   1118.309923 -16960.703826 -20486.993195    -25.086064
P 14  14097.146090  20336.192629   9700.074680    -24.044608
P 15   5684.445125  20626.415193  15340.430126    298.811468
P 16  21107.186098   3876.177450 -15582.759696      8.267903
P 17 -15818.313072   3043.396102 -20754.906071   -106.208444
P 18  -8792.066105  16474.344020  18826.636402    -58.798560
P 19  19083.884026     58.691963  18550.047664    -16.668730
P 20  21642.861599 -13550.815972  -7392.590957   -138.486109
P 21  -5190.298841  25791.525766    825.202090     77.796109
P 22   4112.323977  14724.104163  21874.777047     16.045832
P 23  14684.302595  -6975.308780 -21120.254307    130.494653
P 24 -12864.824197  -8890.967538 -21157.957573     45.149304
P 25  10576.830971  17338.657116 -16745.038088     72.138490
P 26 -21235.747233  -4740.050547  15355.371655    172.578260
P 27   3606.762060 -26017.644115   -732.417626    336.246013
P 28  -5105.059577 -14475.178155  21879.657169     38.504478
P 29 -22467.849387  -7303.247277  12485.064459    379.180525
P 30 -13755.707118  17234.225282 -14961.233876    555.970466
P 31  -7795.047275 -19908.606812  15227.437124    271.383005
*  2004  7 28  4 30  0.00000000
P  1  19500.771814    -54.864542 -17858.645765    355.673278
P  3  24034.665297  10312.578106   5217.109196     30.808051
P  4  -6278.682319 -22123.077672 -12992.543602   -228.847732
P  5 -22718.744977  13490.539746  -1659.622648     41.423547
P  6  -6081.557397  14700.165946 -21057.472848    308.314385
P  7 -14431.728580 -19509.628505  11401.749804    438.095320
P  8   -299.047704 -25707.449842   5738.378578     -5.290560
P  9 -14181.184826  11499.632726  18703.640854    -56.125651
P 10 -22817.013485   -422.508277 -13881.752345     47.945513
P 11  14199.731780 -13166.470577  18113.350196    136.049830
P 13   3010.540609 -15519.856879 -21413.867283    -25.085574
P 14  13008.424787  19706.510587  12206.951852    -24.045007
P 15   5126.082250  22217.297382  13169.219341    298.816084
P 16  19405.013678   4741.291683 -17434.322698      8.267333
P 17 -15271.554919    635.056248 -21429.124627   -106.220797
P 18 -10788.961115  17015.587416  17214.546621    -58.802418
P 19  20498.759983   1496.294267  16890.874780    -16.665472
P 20  22361.282498 -13589.990284  -4642.847405   -138.482736
P 21  -5484.470314  25667.012038  -2038.875094     77.796000
P 22   1780.022660  15497.530303  21653.946325     16.046227
P 23  16484.111466  -5473.710267 -20218.663196    130.505496
P 24 -12329.850085 -11268.045227 -20332.569845     45.150547
P 25  10261.625857  19196.737676 -14848.003354     72.138325
P 26 -22449.383326  -5867.483741  13176.372109    172.590238
P 27   3904.094407 -25686.372138  -3581.493138    336.263199
P 28  -2812.054219 -15339.829659  21675.067634     38.505285
P 29 -23366.861871  -8181.208538   9999.251815    379.173685
P 30 -15279.195555  17648.657838 -12800.958842    555.970086
P 31  -6086.755798 -18996.089033  17051.848671    271.394729
*  2004  7 28  4 45  0.00000000
P  1  21016.312181   1202.545647 -16023.966177    355.674650
P  3  24262.619021  10819.737940   2488.794772     30.809174
P  4  -5906.683786 -23454.829145 -10584.729057   -228.861181
P  5 -22900.840698  13203.959108   1155.788047     41.423721
P  6  -8169.548865  13376.043637 -21242.866698    308.351393
P  7 -13131.613938 -18999.234550  13676.328257    438.078445
P  8     20.456113 -26196.057850   2910.590751     -5.290873
P  9 -14230.262295   9184.482530  19913.010187    -56.128214
P 10 -21342.005818  -1250.470880 -15999.716252     47.945914
P 11  14456.065447 -11006.108246  19324.909264    136.052463
P 13   5049.670004 -14138.509168 -21974.642661    -25.084810
P 14  11663.104233  18982.832051  14504.254369    -24.045872
P 15   4692.978219  23576.038280  10765.409518    298.819797
P 16  17575.156713   5776.818292 -18984.295348      8.266937
P 17 -14841.546752  -1846.051115 -21724.543999   -106.233052
P 18 -12572.221241  17583.327720  15304.228683    -58.805834
P 19  21826.203253   2734.436593  14942.448655    -16.662123
P 20  22792.635526 -13529.419775  -1813.341057   -138.479455
P 21  -5741.763053  25234.939295  -4866.918249     77.796355
P 22   -466.320794  16375.371709  21065.829035     16.046373
P 23  18260.369317  -4137.388581 -18972.847279    130.516568
P 24 -11936.023515 -13555.031296 -19147.419952     45.154004
P 25  10039.195740  20834.003194 -12689.252087     72.139044
P 26 -23511.594379  -6770.915112  10773.693725    172.602267
P 27   4212.197299 -25045.717993  -6366.510889    336.280561
P 28   -603.839496 -16306.226208  21103.440831     38.506012
P 29 -24071.724835  -8850.171097   7344.055949    379.167124
P 30 -16555.263575  18021.060635 -10421.950274    555.970016
P 31  -4174.696365 -18063.938845  18572.062992    271.406655
EOF
